ONEWEB-0258             
1 48976U 21060K   25098.09775001  .00000058  00000+0  11722-3 0  9994
2 48976  87.9046 315.5323 0001686  85.4908 274.6415 13.16594483183620
ONEWEB-0259             
1 48977U 21060L   25097.86344397  .00000088  00000+0  19749-3 0  9999
2 48977  87.9045 315.5631 0001650  81.4156 278.7162 13.16597579182345
ONEWEB-0260             
1 48978U 21060M   25097.85472463 -.00000085  00000+0 -25513-3 0  9990
2 48978  87.9041 315.5942 0002272  83.0305 277.1084 13.16595000182323
ONEWEB-0261             
1 48979U 21060N   25097.90064052  .00000208  00000+0  51157-3 0  9996
2 48979  87.9043 315.5863 0001933  70.9685 289.1655 13.16593990182386
ONEWEB-0262             
1 48980U 21060P   25098.10883398  .00000064  00000+0  13427-3 0  9991
2 48980  87.9046 315.5014 0001438  82.2441 277.8853 13.16594900183674
ONEWEB-0263             
1 48981U 21060Q   25097.83649518  .00000216  00000+0  53205-3 0  9992
2 48981  87.9047 315.5808 0001706  67.8720 292.2591 13.16602223182301
ONEWEB-0264             
1 48982U 21060R   25098.10165756 -.00017170  00000+0 -44979-1 0  9996
2 48982  87.9041 315.5368 0001703  83.9876 276.1449 13.16675376183634
ONEWEB-0266             
1 48984U 21060T   25097.59110959  .00000115  00000+0  26739-3 0  9990
2 48984  87.9047 315.6090 0001597  88.7245 271.4068 13.16595261182266
